{
    "links": {
        "self": "http://www.neowsapp.com/rest/v1/neo/3797697?api_key=iIulBulltgU6a56xZRHN4H3l9WmuAYTsLGpBGhQ2"
    },
    "id": "3797697",
    "neo_reference_id": "3797697",
    "name": "(2018 AL12)",
    "designation": "2018 AL12",
    "nasa_jpl_url": "http://ssd.jpl.nasa.gov/sbdb.cgi?sstr=3797697",
    "absolute_magnitude_h": 24.8,
    "estimated_diameter": {
        "kilometers": {
            "estimated_diameter_min": 0.0291443905,
            "estimated_diameter_max": 0.0651688382
        },
        "meters": {
            "estimated_diameter_min": 29.1443904535,
            "estimated_diameter_max": 65.1688382168
        },
        "miles": {
            "estimated_diameter_min": 0.018109479,
            "estimated_diameter_max": 0.0404940262
        },
        "feet": {
            "estimated_diameter_min": 95.6180819754,
            "estimated_diameter_max": 213.8085311752
        }
    },
    "is_potentially_hazardous_asteroid": false,
    "close_approach_data": [
        {
            "close_approach_date": "2016-01-21",
            "close_approach_date_full": "2016-Jan-21 18:08",
            "epoch_date_close_approach": 1453399680000,
            "relative_velocity": {
                "kilometers_per_second": "22.4944508461",
                "kilometers_per_hour": "80980.0230457984",
                "miles_per_hour": "50317.8370975407"
            },
            "miss_distance": {
                "astronomical": "0.1141931572",
                "lunar": "44.4211381508",
                "kilometers": "17083053.085695164",
                "miles": "10614916.9672107032"
            },
            "orbiting_body": "Earth"
        },
        {
            "close_approach_date": "2018-01-26",
            "close_approach_date_full": "2018-Jan-26 02:26",
            "epoch_date_close_approach": 1516933560000,
            "relative_velocity": {
                "kilometers_per_second": "19.6433351862",
                "kilometers_per_hour": "70716.0066702811",
                "miles_per_hour": "43940.1764779866"
            },
            "miss_distance": {
                "astronomical": "0.0208671563",
                "lunar": "8.1173238007",
                "kilometers": "3121682.135437081",
                "miles": "1939723.3327944778"
            },
            "orbiting_body": "Earth"
        },
        {
            "close_approach_date": "2020-01-30",
            "close_approach_date_full": "2020-Jan-30 08:13",
            "epoch_date_close_approach": 1580371980000,
            "relative_velocity": {
                "kilometers_per_second": "17.654688837",
                "kilometers_per_hour": "63556.8798131572",
                "miles_per_hour": "39491.7734594587"
            },
            "miss_distance": {
                "astronomical": "0.0465979387",
                "lunar": "18.1265981543",
                "kilometers": "6970952.375910569",
                "miles": "4331548.9497970922"
            },
            "orbiting_body": "Earth"
        },
        {
            "close_approach_date": "2022-06-19",
            "close_approach_date_full": "2022-Jun-19 19:45",
            "epoch_date_close_approach": 1655667900000,
            "relative_velocity": {
                "kilometers_per_second": "16.9279307993",
                "kilometers_per_hour": "60940.550877547",
                "miles_per_hour": "37866.0884049958"
            },
            "miss_distance": {
                "astronomical": "0.0668899997",
                "lunar": "26.0202098833",
                "kilometers": "10006601.479420639",
                "miles": "6217813.8354532582"
            },
            "orbiting_body": "Mars"
        }
    ],
    "orbital_data": {
        "orbit_id": "6",
        "orbit_determination_date": "2018-02-26 06:22:07",
        "first_observation_date": "2018-01-14",
        "last_observation_date": "2018-01-25",
        "data_arc_in_days": 11,
        "observations_used": 34,
        "orbit_uncertainty": "8",
        "minimum_orbit_intersection": ".00428739",
        "jupiter_tisserand_invariant": "4.127",
        "epoch_osculation": "2458134.5",
        "eccentricity": ".6237219611181365",
        "semi_major_axis": "1.595063989093811",
        "inclination": "2.347522243675736",
        "ascending_node_longitude": "317.4560292175983",
        "orbital_period": "735.8098416477907",
        "perihelion_distance": ".6001875497073013",
        "perihelion_argument": "260.3419722561349",
        "aphelion_distance": "2.58994042848032",
        "perihelion_time": "2458193.418286093706",
        "mean_anomaly": "331.1738253646694",
        "mean_motion": ".4892568427649827",
        "equinox": "J2000",
        "orbit_class": {
            "orbit_class_type": "APO",
            "orbit_class_description": "Near-Earth asteroid orbits which cross the Earth’s orbit similar to that of 1862 Apollo",
            "orbit_class_range": "a (semi-major axis) > 1.0 AU; q (perihelion) < 1.017 AU"
        }
    },
    "is_sentry_object": false
}